ESEO                    
1 43792U 18099AL  26068.65529582  .00002831  00000+0  20935-3 0  9991
2 43792  97.4113 110.2601 0011063 317.6000  42.4371 15.03914518396849
STARLINK-34926          
1 65194U 25175W   26068.61348791  .00007441  00000+0  51926-3 0  9997
2 65194  97.6020 302.6561 0003050  98.7357 261.4215 15.05656828 32609
